NORAD_CAT_ID,OBJECT_NAME,OBJECT_TYPE,EPOCH,MEAN_MOTION,ECCENTRICITY,INCLINATION,RA_OF_ASC_NODE,ARG_OF_PERICENTER,MEAN_ANOMALY,BSTAR,MEAN_MOTION_DOT,MEAN_MOTION_DDOT,TLE_LINE0,TLE_LINE1,TLE_LINE2,SEMIMAJOR_AXIS,PERIOD,APOGEE,PERIGEE,DECAYED
52364.0,STARLINK-3820,PAYLOAD,2022-12-21 05:02:39,15.08830192,0.0002256,53.218,61.5555,62.0127,298.1093,0.0003548,5.362e-05,0.0,0 STARLINK-3820,1 52364U 22045AK  22355.21017450  .00005362  00000-0  35480-3 0  9999,2 52364  53.2180  61.5555 0002256  62.0127 298.1093 15.08830192 38618,6917.91,95.438,541.336,538.215,0.0
52364.0,STARLINK-3820,PAYLOAD,2022-12-21 11:24:11,15.08834429,0.0002287,53.2182,60.3661,61.5954,298.5268,0.00076583,0.00011919,0.0,0 STARLINK-3820,1 52364U 22045AK  22355.47513739  .00011919  00000-0  76583-3 0  9992,2 52364  53.2182  60.3661 0002287  61.5954 298.5268 15.08834429 38650,6917.897,95.438,541.345,538.18,0.0
52364.0,STARLINK-3820,PAYLOAD,2022-12-22 04:53:25,15.08859733,0.0002217,53.2184,57.0963,63.2038,296.918,0.0010628,0.00016676,0.0,0 STARLINK-3820,1 52364U 22045AK  22356.20377302  .00016676  00000-0  10628-2 0  9990,2 52364  53.2184  57.0963 0002217  63.2038 296.9180 15.08859733 38767,6917.82,95.436,541.219,538.151,0.0
52364.0,STARLINK-3820,PAYLOAD,2022-12-22 11:14:58,15.08854087,0.0002331,53.2184,55.9066,65.3819,294.7415,0.0007932999999999,0.00012365,0.0,0 STARLINK-3820,1 52364U 22045AK  22356.46873179  .00012365  00000-0  79330-3 0  9998,2 52364  53.2184  55.9066 0002331  65.3819 294.7415 15.08854087 38804,6917.837,95.437,541.315,538.09,0.0
52364.0,STARLINK-3820,PAYLOAD,2022-12-22 16:01:07,15.08856472,0.0002017,53.2184,55.0148,58.0794,302.0394,0.00030805,4.620000000000001e-05,0.0,0 STARLINK-3820,1 52364U 22045AK  22356.66744867  .00004620  00000-0  30805-3 0  9990,2 52364  53.2184  55.0148 0002017  58.0794 302.0394 15.08856472 38830,6917.83,95.437,541.09,538.3,0.0
52364.0,STARLINK-3820,PAYLOAD,2022-12-23 11:05:45,15.08847542,0.0002451,53.2177,51.4456,68.5787,291.5466,0.00024913,3.68e-05,0.0,0 STARLINK-3820,1 52364U 22045AK  22357.46232934  .00003680  00000-0  24913-3 0  9994,2 52364  53.2177  51.4456 0002451  68.5787 291.5466 15.08847542 38957,6917.857,95.437,541.418,538.0269999999998,0.0
52364.0,STARLINK-3820,PAYLOAD,2022-12-23 14:16:31,15.08840508,0.000181,53.2179,50.8521,61.6892,298.4282,-1.8366e-06,-3.17e-06,0.0,0 STARLINK-3820,1 52364U 22045AK  22357.59481057 -.00000317  00000-0 -18366-5 0  9993,2 52364  53.2179  50.8521 0001810  61.6892 298.4282 15.08840508 38973,6917.879,95.438,540.996,538.492,0.0
52364.0,STARLINK-3820,PAYLOAD,2022-12-24 02:59:36,15.08845544,0.0001728,53.2168,48.4727,62.0513,298.0654,0.00032666,4.915e-05,0.0,0 STARLINK-3820,1 52364U 22045AK  22358.12473003  .00004915  00000-0  32666-3 0  9998,2 52364  53.2168  48.4727 0001728  62.0513 298.0654 15.08845544 39059,6917.863,95.437,540.924,538.533,0.0
52364.0,STARLINK-3820,PAYLOAD,2022-12-24 15:42:41,15.0884697,0.0001838,53.217,46.0942,58.9266,301.1906,0.00043365,6.622e-05,0.0,0 STARLINK-3820,1 52364U 22045AK  22358.65464965  .00006622  00000-0  43365-3 0  9998,2 52364  53.2170  46.0942 0001838  58.9266 301.1906 15.08846970 39135,6917.859,95.437,540.996,538.453,0.0
52364.0,STARLINK-3820,PAYLOAD,2022-12-25 09:11:56,15.08845886,0.0001933,53.2172,42.8227,58.8439,301.2743,0.00017566,2.509e-05,0.0,0 STARLINK-3820,1 52364U 22045AK  22359.38328800  .00002509  00000-0  17566-3 0  9990,2 52364  53.2172  42.8227 0001933  58.8439 301.2743 15.08845886 39241,6917.861999999999,95.437,541.065,538.39,0.0
52364.0,STARLINK-3820,PAYLOAD,2022-12-25 20:19:38,15.0884027,0.0001798,53.2171,40.7409,58.9836,301.1332,2.68e-05,1.38e-06,0.0,0 STARLINK-3820,1 52364U 22045AK  22359.84696853  .00000138  00000-0  26800-4 0  9995,2 52364  53.2171  40.7409 0001798  58.9836 301.1332 15.08840270 39313,6917.88,95.438,540.988,538.501,0.0
52364.0,STARLINK-3820,PAYLOAD,2022-12-26 02:41:10,15.08839606,0.0001801,53.2177,39.5517,57.5754,302.5412,4.5232e-05,4.32e-06,0.0,0 STARLINK-3820,1 52364U 22045AK  22360.11192993  .00000432  00000-0  45232-4 0  9990,2 52364  53.2177  39.5517 0001801  57.5754 302.5412 15.08839606 39353,6917.882,95.438,540.993,538.501,0.0
52364.0,STARLINK-3820,PAYLOAD,2022-12-26 09:02:43,15.08845185,0.0001814,53.2179,38.3623,56.9524,303.1642,7.9251e-05,9.74e-06,0.0,0 STARLINK-3820,1 52364U 22045AK  22360.37688823  .00000974  00000-0  79251-4 0  9999,2 52364  53.2179  38.3623 0001814  56.9524 303.1642 15.08845185 39397,6917.865,95.437,540.984,538.475,0.0
52364.0,STARLINK-3820,PAYLOAD,2022-12-26 20:10:25,15.08837233,0.0001740999999999,53.2177,36.2803,57.774,302.342,2.2336e-05,6.7e-07,0.0,0 STARLINK-3820,1 52364U 22045AK  22360.84057295  .00000067  00000-0  22336-4 0  9999,2 52364  53.2177  36.2803 0001741  57.7740 302.3420 15.08837233 39468,6917.889,95.438,540.9580000000002,538.549,0.0
52364.0,STARLINK-3820,PAYLOAD,2022-12-27 12:04:16,15.08851992,0.0001764,53.2168,33.306,57.6012,302.515,0.00026893,3.996e-05,0.0,0 STARLINK-3820,1 52364U 22045AK  22361.50296434  .00003996  00000-0  26893-3 0  9998,2 52364  53.2168  33.3060 0001764  57.6012 302.5150 15.08851992 39568,6917.844,95.437,540.929,538.488,0.0
52364.0,STARLINK-3820,PAYLOAD,2022-12-28 11:55:02,15.08845426,0.0001829,53.2176,28.8465,53.1284,306.9875,3.0172e-05,1.92e-06,0.0,0 STARLINK-3820,1 52364U 22045AK  22362.49656135  .00000192  00000-0  30172-4 0  9996,2 52364  53.2176  28.8465 0001829  53.1284 306.9875 15.08845426 39713,6917.864000000001,95.437,540.994,538.464,0.0
52364.0,STARLINK-3820,PAYLOAD,2022-12-29 02:13:31,15.08837245,0.0001440999999999,53.2184,26.1686,67.3548,292.7596,-5.1192e-06,-3.69e-06,0.0,0 STARLINK-3820,1 52364U 22045AK  22363.09272325 -.00000369  00000-0 -51192-5 0  9992,2 52364  53.2184  26.1686 0001441  67.3548 292.7596 15.08837245 39800,6917.889,95.438,540.751,538.757,0.0
52364.0,STARLINK-3820,PAYLOAD,2022-12-29 11:45:50,15.08825817,0.0001559,53.2184,24.386,47.2369,312.8754,-0.00030478,-5.133e-05,0.0,0 STARLINK-3820,1 52364U 22045AK  22363.49017162 -.00005133  00000-0 -30478-3 0  9998,2 52364  53.2184  24.3860 0001559  47.2369 312.8754 15.08825817 39860,6917.924,95.438,540.867,538.71,0.0
52364.0,STARLINK-3820,PAYLOAD,2022-12-30 11:36:37,15.08844359,0.0001653,53.2181,19.9259,45.67,314.4428,0.0005727999999999,8.841e-05,0.0,0 STARLINK-3820,1 52364U 22045AK  22364.48377314  .00008841  00000-0  57280-3 0  9993,2 52364  53.2181  19.9259 0001653  45.6700 314.4428 15.08844359 40012,6917.8669999999975,95.437,540.876,538.589,0.0
52364.0,STARLINK-3820,PAYLOAD,2022-12-31 05:05:53,15.08811559,0.0001964,53.218,16.6552,1.739,358.3608,-0.00078918,-0.00012816,0.0,0 STARLINK-3820,1 52364U 22045AK  22365.21242114 -.00012816  00000-0 -78918-3 0  9994,2 52364  53.2180  16.6552 0001964   1.7390 358.3608 15.08811559 40129,6917.967,95.439,541.191,538.474,0.0
52364.0,STARLINK-3820,PAYLOAD,2022-12-31 11:27:26,15.08794101,0.000138,53.218,15.4663,24.9132,335.1926,0.00019699,2.845e-05,0.0,0 STARLINK-3820,1 52364U 22045AK  22365.47738907  .00002845  00000-0  19699-3 0  9992,2 52364  53.2180  15.4663 0001380  24.9132 335.1926 15.08794101 40165,6918.021,95.44,540.84,538.931,0.0
52364.0,STARLINK-3820,PAYLOAD,2022-12-31 17:48:59,15.08800745,6.9e-05,53.2178,14.2768,31.1572,328.9461,0.0010351,0.00016206,0.0,0 STARLINK-3820,1 52364U 22045AK  22365.74235413  .00016206  00000-0  10351-2 0  9997,2 52364  53.2178  14.2768 0000690  31.1572 328.9461 15.08800745 40207,6918.0,95.44,540.3430000000002,539.388,0.0
52364.0,STARLINK-3820,PAYLOAD,2023-01-01 04:56:41,15.088502900000002,0.0001092,53.2176,12.1986,48.7639,311.3447,0.0029979,0.0004775999999999,0.0,0 STARLINK-3820,1 52364U 22045AK  23001.20604060  .00047760  00000-0  29979-2 0  9999,2 52364  53.2176  12.1986 0001092  48.7639 311.3447 15.08850290 40276,6917.849,95.437,540.469,538.9590000000002,0.0
52364.0,STARLINK-3820,PAYLOAD,2023-01-01 08:07:28,15.08862763,0.0001315999999999,53.217,11.6037,64.479,295.6338,0.0029715,0.00047351,0.0,0 STARLINK-3820,1 52364U 22045AK  23001.33851961  .00047351  00000-0  29715-2 0  9991,2 52364  53.2170  11.6037 0001316  64.4790 295.6338 15.08862763 40296,6917.811,95.436,540.586,538.765,0.0
52364.0,STARLINK-3820,PAYLOAD,2023-01-01 17:39:46,15.08856537,0.0001921999999999,53.218,9.8167,57.9123,302.2056,0.0018680999999999,0.00029582,0.0,0 STARLINK-3820,1 52364U 22045AK  23001.73595963  .00029582  00000-0  18681-2 0  9998,2 52364  53.2180   9.8167 0001922  57.9123 302.2056 15.08856537 40351,6917.83,95.437,541.024,538.365,0.0
52364.0,STARLINK-3820,PAYLOAD,2023-01-02 06:22:51,15.08864095,0.0001915,53.219,7.4358,62.1635,297.9551,0.00095142,0.00014896,0.0,0 STARLINK-3820,1 52364U 22045AK  23002.26587362  .00014896  00000-0  95142-3 0  9991,2 52364  53.2190   7.4358 0001915  62.1635 297.9551 15.08864095 40433,6917.807,95.436,540.997,538.347,0.0
52364.0,STARLINK-3820,PAYLOAD,2023-01-02 09:33:37,15.08866054,0.0001623,53.2163,6.8407,61.0502,299.0653,0.00086181,0.00013464,0.0,0 STARLINK-3820,1 52364U 22045AK  23002.39835164  .00013464  00000-0  86181-3 0  9994,2 52364  53.2163   6.8407 0001623  61.0502 299.0653 15.08866054 40453,6917.801,95.436,540.789,538.543,0.0
52364.0,STARLINK-3820,PAYLOAD,2023-01-02 17:30:33,15.08860574,0.0001694,53.2168,5.3544,60.397,299.7191,0.00044814,6.855e-05,0.0,0 STARLINK-3820,1 52364U 22045AK  23002.72954871  .00006855  00000-0  44814-3 0  9991,2 52364  53.2168   5.3544 0001694  60.3970 299.7191 15.08860574 40504,6917.818,95.436,540.854,538.511,0.0
52364.0,STARLINK-3820,PAYLOAD,2023-01-03 06:13:38,15.08849497,0.0001808,53.217,2.9765,60.3278,299.7894,3.8001e-05,3.17e-06,0.0,0 STARLINK-3820,1 52364U 22045AK  23003.25946783  .00000317  00000-0  38001-4 0  9992,2 52364  53.2170   2.9765 0001808  60.3278 299.7894 15.08849497 40582,6917.851,95.437,540.967,538.466,0.0
